[{"empId": 771, "empName": "SAAAA", "empAge": 44, "empSalary": 11938.33, "empRole": [{"roleId": 1, "roleCode": "STAFF1", "roleName": "STAFF"}], "empAddress": [{"city": "ANAGAR", "state": "MH", "pincode": 776068}, {"city": "ANAGAR", "state": "MH", "pincode": 838756}, {"city": "NANDED", "state": "MH", "pincode": 921252}]}, {"empId": 771, "empName": "RAAAA", "empAge": 35, "empSalary": 18303.67, "empRole": [{"roleId": 2, "roleCode": "LEAD2", "roleName": "LEAD"}, {"roleId": 3, "roleCode": "LEAD3", "roleName": "LEAD"}], "empAddress": [{"city": "MUMBAI", "state": "MH", "pincode": 632916}, {"city": "ANAGAR", "state": "MH", "pincode": 778464}, {"city": "MUMBAI", "state": "MH", "pincode": 914161}]}, {"empId": 771, "empName": "IAAAA", "empAge": 51, "empSalary": 14175.67, "empRole": [{"roleId": 4, "roleCode": "LEAD4", "roleName": "LEAD"}, {"roleId": 5, "roleCode": "CEO5", "roleName": "CEO"}, {"roleId": 6, "roleCode": "SSE6", "roleName": "SSE"}], "empAddress": [{"city": "MUMBAI", "state": "MH", "pincode": 313002}, {"city": "LATUR", "state": "MH", "pincode": 743418}]}, {"empId": 771, "empName": "LAAAA", "empAge": 53, "empSalary": 10278.67, "empRole": [{"roleId": 7, "roleCode": "SE7", "roleName": "SE"}, {"roleId": 8, "roleCode": "MANAGER8", "roleName": "MANAGER"}], "empAddress": [{"city": "BEED", "state": "MH", "pincode": 229035}, {"city": "MUMBAI", "state": "MH", "pincode": 618221}, {"city": "SANGLI", "state": "MH", "pincode": 576275}, {"city": "NANDED", "state": "MH", "pincode": 908560}]}, {"empId": 771, "empName": "ZAAAA", "empAge": 42, "empSalary": 12595.0, "empRole": [{"roleId": 9, "roleCode": "CEO9", "roleName": "CEO"}, {"roleId": 10, "roleCode": "SE10", "roleName": "SE"}], "empAddress": [{"city": "BEED", "state": "MH", "pincode": 283714}, {"city": "KOLHAPUR", "state": "MH", "pincode": 899892}]}, {"empId": 771, "empName": "JAAAA", "empAge": 39, "empSalary": 14238.33, "empRole": [{"roleId": 11, "roleCode": "STAFF11", "roleName": "STAFF"}, {"roleId": 12, "roleCode": "SSE12", "roleName": "SSE"}, {"roleId": 13, "roleCode": "CEO13", "roleName": "CEO"}], "empAddress": [{"city": "BEED", "state": "MH", "pincode": 419836}]}, {"empId": 771, "empName": "RAAAA", "empAge": 35, "empSalary": 12517.0, "empRole": [{"roleId": 14, "roleCode": "MANAGER14", "roleName": "MANAGER"}, {"roleId": 15, "roleCode": "HOUSKEEPING15", "roleName": "HOUSKEEPING"}], "empAddress": [{"city": "SATARA", "state": "MH", "pincode": 881116}]}, {"empId": 771, "empName": "OAAAA", "empAge": 48, "empSalary": 24905.33, "empRole": [{"roleId": 16, "roleCode": "STAFF16", "roleName": "STAFF"}], "empAddress": [{"city": "BEED", "state": "MH", "pincode": 297691}]}, {"empId": 771, "empName": "JAAAA", "empAge": 37, "empSalary": 19672.33, "empRole": [{"roleId": 17, "roleCode": "MANAGER17", "roleName": "MANAGER"}, {"roleId": 18, "roleCode": "SE18", "roleName": "SE"}, {"roleId": 19, "roleCode": "LEAD19", "roleName": "LEAD"}], "empAddress": [{"city": "KOLHAPUR", "state": "MH", "pincode": 214250}, {"city": "PUNE", "state": "MH", "pincode": 139297}, {"city": "MUMBAI", "state": "MH", "pincode": 486274}, {"city": "KOLHAPUR", "state": "MH", "pincode": 205149}, {"city": "LATUR", "state": "MH", "pincode": 924098}]}, {"empId": 771, "empName": "WAAAA", "empAge": 56, "empSalary": 23608.67, "empRole": [{"roleId": 20, "roleCode": "SSE20", "roleName": "SSE"}, {"roleId": 21, "roleCode": "LEAD21", "roleName": "LEAD"}, {"roleId": 22, "roleCode": "LEAD22", "roleName": "LEAD"}], "empAddress": [{"city": "SANGLI", "state": "MH", "pincode": 925500}]}]